[{"CCSDS_OMM_VERS":"3.0","COMMENT":"GENERATED VIA SPACE-TRACK.ORG API","CREATION_DATE":"2026-06-02T07:37:26","ORIGINATOR":"18 SPCS","OBJECT_NAME":"NAVSTAR 83 (USA 440)","OBJECT_ID":"2024-242A","CENTER_NAME":"EARTH","REF_FRAME":"TEME","TIME_SYSTEM":"UTC","MEAN_ELEMENT_THEORY":"SGP4","EPOCH":"2026-06-01T21:09:45.595872","MEAN_MOTION":"2.00571617","ECCENTRICITY":"0.00173847","INCLINATION":"54.8559","RA_OF_ASC_NODE":"334.8018","ARG_OF_PERICENTER":"4.3809","MEAN_ANOMALY":"352.9487","EPHEMERIS_TYPE":"0","CLASSIFICATION_TYPE":"U","NORAD_CAT_ID":"62339","ELEMENT_SET_NO":"999","REV_AT_EPOCH":"1094","BSTAR":"0.00000000000000","MEAN_MOTION_DOT":"-0.00000086","MEAN_MOTION_DDOT":"0.0000000000000","SEMIMAJOR_AXIS":"26559.640","PERIOD":"717.948","APOAPSIS":"20227.678","PERIAPSIS":"20135.332","OBJECT_TYPE":"PAYLOAD","RCS_SIZE":"LARGE","COUNTRY_CODE":"US","LAUNCH_DATE":"2024-12-17","SITE":"AFETR","DECAY_DATE":null,"FILE":"5227263","GP_ID":"326620087","TLE_LINE0":"0 NAVSTAR 83 (USA 440)","TLE_LINE1":"1 62339U 24242A   26152.88177773 -.00000086  00000-0  00000-0 0  9996","TLE_LINE2":"2 62339  54.8559 334.8018 0017385   4.3809 352.9487  2.00571617 10947"},{"CCSDS_OMM_VERS":"3.0","COMMENT":"GENERATED VIA SPACE-TRACK.ORG API","CREATION_DATE":"2026-06-02T10:48:41","ORIGINATOR":"18 SPCS","OBJECT_NAME":"NAVSTAR 83 (USA 440)","OBJECT_ID":"2024-242A","CENTER_NAME":"EARTH","REF_FRAME":"TEME","TIME_SYSTEM":"UTC","MEAN_ELEMENT_THEORY":"SGP4","EPOCH":"2026-06-02T03:11:38.683968","MEAN_MOTION":"2.00571617","ECCENTRICITY":"0.00173840","INCLINATION":"54.8559","RA_OF_ASC_NODE":"334.7917","ARG_OF_PERICENTER":"4.3718","MEAN_ANOMALY":"174.4224","EPHEMERIS_TYPE":"0","CLASSIFICATION_TYPE":"U","NORAD_CAT_ID":"62339","ELEMENT_SET_NO":"999","REV_AT_EPOCH":"1095","BSTAR":"0.00000000000000","MEAN_MOTION_DOT":"-0.00000085","MEAN_MOTION_DDOT":"0.0000000000000","SEMIMAJOR_AXIS":"26559.640","PERIOD":"717.948","APOAPSIS":"20227.677","PERIAPSIS":"20135.334","OBJECT_TYPE":"PAYLOAD","RCS_SIZE":"LARGE","COUNTRY_CODE":"US","LAUNCH_DATE":"2024-12-17","SITE":"AFETR","DECAY_DATE":null,"FILE":"5227273","GP_ID":"326654089","TLE_LINE0":"0 NAVSTAR 83 (USA 440)","TLE_LINE1":"1 62339U 24242A   26153.13308662 -.00000085  00000-0  00000-0 0  9997","TLE_LINE2":"2 62339  54.8559 334.7917 0017384   4.3718 174.4224  2.00571617 10959"},{"CCSDS_OMM_VERS":"3.0","COMMENT":"GENERATED VIA SPACE-TRACK.ORG API","CREATION_DATE":"2026-06-03T03:08:42","ORIGINATOR":"18 SPCS","OBJECT_NAME":"NAVSTAR 83 (USA 440)","OBJECT_ID":"2024-242A","CENTER_NAME":"EARTH","REF_FRAME":"TEME","TIME_SYSTEM":"UTC","MEAN_ELEMENT_THEORY":"SGP4","EPOCH":"2026-06-02T21:07:03.043776","MEAN_MOTION":"2.00571616","ECCENTRICITY":"0.00173841","INCLINATION":"54.8558","RA_OF_ASC_NODE":"334.7615","ARG_OF_PERICENTER":"4.3770","MEAN_ANOMALY":"353.6720","EPHEMERIS_TYPE":"0","CLASSIFICATION_TYPE":"U","NORAD_CAT_ID":"62339","ELEMENT_SET_NO":"999","REV_AT_EPOCH":"1096","BSTAR":"0.00000000000000","MEAN_MOTION_DOT":"-0.00000082","MEAN_MOTION_DDOT":"0.0000000000000","SEMIMAJOR_AXIS":"26559.641","PERIOD":"717.948","APOAPSIS":"20227.677","PERIAPSIS":"20135.334","OBJECT_TYPE":"PAYLOAD","RCS_SIZE":"LARGE","COUNTRY_CODE":"US","LAUNCH_DATE":"2024-12-17","SITE":"AFETR","DECAY_DATE":null,"FILE":"5227853","GP_ID":"326772114","TLE_LINE0":"0 NAVSTAR 83 (USA 440)","TLE_LINE1":"1 62339U 24242A   26153.87989634 -.00000082  00000-0  00000-0 0  9999","TLE_LINE2":"2 62339  54.8558 334.7615 0017384   4.3770 353.6720  2.00571616 10963"},{"CCSDS_OMM_VERS":"3.0","COMMENT":"GENERATED VIA SPACE-TRACK.ORG API","CREATION_DATE":"2026-06-03T11:16:57","ORIGINATOR":"18 SPCS","OBJECT_NAME":"NAVSTAR 83 (USA 440)","OBJECT_ID":"2024-242A","CENTER_NAME":"EARTH","REF_FRAME":"TEME","TIME_SYSTEM":"UTC","MEAN_ELEMENT_THEORY":"SGP4","EPOCH":"2026-06-03T03:06:38.576160","MEAN_MOTION":"2.00571613","ECCENTRICITY":"0.00173845","INCLINATION":"54.8556","RA_OF_ASC_NODE":"334.7514","ARG_OF_PERICENTER":"4.3653","MEAN_ANOMALY":"173.9988","EPHEMERIS_TYPE":"0","CLASSIFICATION_TYPE":"U","NORAD_CAT_ID":"62339","ELEMENT_SET_NO":"999","REV_AT_EPOCH":"1097","BSTAR":"0.00000000000000","MEAN_MOTION_DOT":"-0.00000080","MEAN_MOTION_DDOT":"0.0000000000000","SEMIMAJOR_AXIS":"26559.641","PERIOD":"717.948","APOAPSIS":"20227.678","PERIAPSIS":"20135.333","OBJECT_TYPE":"PAYLOAD","RCS_SIZE":"LARGE","COUNTRY_CODE":"US","LAUNCH_DATE":"2024-12-17","SITE":"AFETR","DECAY_DATE":null,"FILE":"5228320","GP_ID":"326850995","TLE_LINE0":"0 NAVSTAR 83 (USA 440)","TLE_LINE1":"1 62339U 24242A   26154.12961315 -.00000080  00000-0  00000-0 0  9992","TLE_LINE2":"2 62339  54.8556 334.7514 0017384   4.3653 173.9988  2.00571613 10976"},{"CCSDS_OMM_VERS":"3.0","COMMENT":"GENERATED VIA SPACE-TRACK.ORG API","CREATION_DATE":"2026-06-03T06:56:38","ORIGINATOR":"18 SPCS","OBJECT_NAME":"NAVSTAR 83 (USA 440)","OBJECT_ID":"2024-242A","CENTER_NAME":"EARTH","REF_FRAME":"TEME","TIME_SYSTEM":"UTC","MEAN_ELEMENT_THEORY":"SGP4","EPOCH":"2026-06-03T03:06:38.576160","MEAN_MOTION":"2.00571613","ECCENTRICITY":"0.00173840","INCLINATION":"54.8556","RA_OF_ASC_NODE":"334.7514","ARG_OF_PERICENTER":"4.3653","MEAN_ANOMALY":"173.9988","EPHEMERIS_TYPE":"0","CLASSIFICATION_TYPE":"U","NORAD_CAT_ID":"62339","ELEMENT_SET_NO":"999","REV_AT_EPOCH":"1097","BSTAR":"0.00000000000000","MEAN_MOTION_DOT":"-0.00000080","MEAN_MOTION_DDOT":"0.0000000000000","SEMIMAJOR_AXIS":"26559.641","PERIOD":"717.948","APOAPSIS":"20227.677","PERIAPSIS":"20135.334","OBJECT_TYPE":"PAYLOAD","RCS_SIZE":"LARGE","COUNTRY_CODE":"US","LAUNCH_DATE":"2024-12-17","SITE":"AFETR","DECAY_DATE":null,"FILE":"5228206","GP_ID":"326813665","TLE_LINE0":"0 NAVSTAR 83 (USA 440)","TLE_LINE1":"1 62339U 24242A   26154.12961315 -.00000080  00000-0  00000+0 0  9991","TLE_LINE2":"2 62339  54.8556 334.7514 0017384   4.3653 173.9988  2.00571613 10976"},{"CCSDS_OMM_VERS":"3.0","COMMENT":"GENERATED VIA SPACE-TRACK.ORG API","CREATION_DATE":"2026-06-03T22:56:36","ORIGINATOR":"18 SPCS","OBJECT_NAME":"NAVSTAR 83 (USA 440)","OBJECT_ID":"2024-242A","CENTER_NAME":"EARTH","REF_FRAME":"TEME","TIME_SYSTEM":"UTC","MEAN_ELEMENT_THEORY":"SGP4","EPOCH":"2026-06-03T21:04:25.178880","MEAN_MOTION":"2.00571611","ECCENTRICITY":"0.00173850","INCLINATION":"54.8552","RA_OF_ASC_NODE":"334.7212","ARG_OF_PERICENTER":"4.3535","MEAN_ANOMALY":"354.4544","EPHEMERIS_TYPE":"0","CLASSIFICATION_TYPE":"U","NORAD_CAT_ID":"62339","ELEMENT_SET_NO":"999","REV_AT_EPOCH":"1098","BSTAR":"0.00000000000000","MEAN_MOTION_DOT":"-0.00000076","MEAN_MOTION_DDOT":"0.0000000000000","SEMIMAJOR_AXIS":"26559.641","PERIOD":"717.948","APOAPSIS":"20227.680","PERIAPSIS":"20135.332","OBJECT_TYPE":"PAYLOAD","RCS_SIZE":"LARGE","COUNTRY_CODE":"US","LAUNCH_DATE":"2024-12-17","SITE":"AFETR","DECAY_DATE":null,"FILE":"5229266","GP_ID":"326979267","TLE_LINE0":"0 NAVSTAR 83 (USA 440)","TLE_LINE1":"1 62339U 24242A   26154.87806920 -.00000076  00000-0  00000+0 0  9998","TLE_LINE2":"2 62339  54.8552 334.7212 0017385   4.3535 354.4544  2.00571611 10980"},{"CCSDS_OMM_VERS":"3.0","COMMENT":"GENERATED VIA SPACE-TRACK.ORG API","CREATION_DATE":"2026-06-04T04:32:25","ORIGINATOR":"18 SPCS","OBJECT_NAME":"NAVSTAR 83 (USA 440)","OBJECT_ID":"2024-242A","CENTER_NAME":"EARTH","REF_FRAME":"TEME","TIME_SYSTEM":"UTC","MEAN_ELEMENT_THEORY":"SGP4","EPOCH":"2026-06-03T21:04:25.179744","MEAN_MOTION":"2.00571611","ECCENTRICITY":"0.00173853","INCLINATION":"54.8552","RA_OF_ASC_NODE":"334.7212","ARG_OF_PERICENTER":"4.3535","MEAN_ANOMALY":"354.4544","EPHEMERIS_TYPE":"0","CLASSIFICATION_TYPE":"U","NORAD_CAT_ID":"62339","ELEMENT_SET_NO":"999","REV_AT_EPOCH":"1098","BSTAR":"0.00000000000000","MEAN_MOTION_DOT":"-0.00000076","MEAN_MOTION_DDOT":"0.0000000000000","SEMIMAJOR_AXIS":"26559.641","PERIOD":"717.948","APOAPSIS":"20227.681","PERIAPSIS":"20135.331","OBJECT_TYPE":"PAYLOAD","RCS_SIZE":"LARGE","COUNTRY_CODE":"US","LAUNCH_DATE":"2024-12-17","SITE":"AFETR","DECAY_DATE":null,"FILE":"5229409","GP_ID":"327017750","TLE_LINE0":"0 NAVSTAR 83 (USA 440)","TLE_LINE1":"1 62339U 24242A   26154.87806921 -.00000076  00000-0  00000-0 0  9990","TLE_LINE2":"2 62339  54.8552 334.7212 0017385   4.3535 354.4544  2.00571611 10980"},{"CCSDS_OMM_VERS":"3.0","COMMENT":"GENERATED VIA SPACE-TRACK.ORG API","CREATION_DATE":"2026-06-04T12:20:25","ORIGINATOR":"18 SPCS","OBJECT_NAME":"NAVSTAR 83 (USA 440)","OBJECT_ID":"2024-242A","CENTER_NAME":"EARTH","REF_FRAME":"TEME","TIME_SYSTEM":"UTC","MEAN_ELEMENT_THEORY":"SGP4","EPOCH":"2026-06-04T03:14:26.748384","MEAN_MOTION":"2.00571604","ECCENTRICITY":"0.00173828","INCLINATION":"54.8549","RA_OF_ASC_NODE":"334.7108","ARG_OF_PERICENTER":"4.3367","MEAN_ANOMALY":"180.0182","EPHEMERIS_TYPE":"0","CLASSIFICATION_TYPE":"U","NORAD_CAT_ID":"62339","ELEMENT_SET_NO":"999","REV_AT_EPOCH":"1099","BSTAR":"0.00000000000000","MEAN_MOTION_DOT":"-0.00000075","MEAN_MOTION_DDOT":"0.0000000000000","SEMIMAJOR_AXIS":"26559.642","PERIOD":"717.948","APOAPSIS":"20227.675","PERIAPSIS":"20135.338","OBJECT_TYPE":"PAYLOAD","RCS_SIZE":"LARGE","COUNTRY_CODE":"US","LAUNCH_DATE":"2024-12-17","SITE":"AFETR","DECAY_DATE":null,"FILE":"5229914","GP_ID":"327097794","TLE_LINE0":"0 NAVSTAR 83 (USA 440)","TLE_LINE1":"1 62339U 24242A   26155.13503181 -.00000075  00000-0  00000-0 0  9991","TLE_LINE2":"2 62339  54.8549 334.7108 0017383   4.3367 180.0182  2.00571604 10995"}]